[{"OBJECT_NAME":"STARLINK-30154","OBJECT_ID":"2023-113A","EPOCH":"2026-03-09T22:00:01.999584","MEAN_MOTION":15.26719674,"ECCENTRICITY":0.00013368,"INCLINATION":43.001,"RA_OF_ASC_NODE":14.5318,"ARG_OF_PERICENTER":255.4697,"MEAN_ANOMALY":73.4226,"EPHEMERIS_TYPE":0,"CLASSIFICATION_TYPE":"U","NORAD_CAT_ID":57495,"ELEMENT_SET_NO":999,"REV_AT_EPOCH":578,"BSTAR":0.00045255852,"MEAN_MOTION_DOT":0.00011892,"MEAN_MOTION_DDOT":0},{"OBJECT_NAME":"FLOCK 4G-9","OBJECT_ID":"2025-009P","EPOCH":"2026-03-09T19:25:28.387776","MEAN_MOTION":15.26202239,"ECCENTRICITY":0.00036141,"INCLINATION":97.4,"RA_OF_ASC_NODE":150.6115,"ARG_OF_PERICENTER":328.2191,"MEAN_ANOMALY":31.8829,"EPHEMERIS_TYPE":0,"CLASSIFICATION_TYPE":"U","NORAD_CAT_ID":62622,"ELEMENT_SET_NO":999,"REV_AT_EPOCH":6369,"BSTAR":0.00041816911,"MEAN_MOTION_DOT":0.00010752,"MEAN_MOTION_DDOT":0}]
